NORAD_CAT_ID,OBJECT_NAME,OBJECT_TYPE,EPOCH,MEAN_MOTION,ECCENTRICITY,INCLINATION,RA_OF_ASC_NODE,ARG_OF_PERICENTER,MEAN_ANOMALY,BSTAR,MEAN_MOTION_DOT,MEAN_MOTION_DDOT,TLE_LINE0,TLE_LINE1,TLE_LINE2,SEMIMAJOR_AXIS,PERIOD,APOGEE,PERIGEE,DECAYED
51472.0,STARLINK-3415,PAYLOAD,2023-11-18 18:23:52,15.08839719,0.0001318,53.219,98.6625,94.2536,265.8606,6.3755e-05,7.27e-06,0.0,0 STARLINK-3415,1 51472U 22010S   23322.76657726  .00000727  00000-0  63755-4 0  9998,2 51472  53.2190  98.6625 0001318  94.2536 265.8606 15.08839719 99720,6917.881,95.438,540.658,538.834,0.0
51472.0,STARLINK-3415,PAYLOAD,2023-11-19 13:28:29,15.0883981,0.0001327,53.218,95.0937,91.3037,268.8107,0.0001008,1.317e-05,0.0,0 STARLINK-3415,1 51472U 22010S   23323.56145753  .00001317  00000-0  10080-3 0  9997,2 51472  53.2180  95.0937 0001327  91.3037 268.8107 15.08839810 99844,6917.881,95.438,540.664,538.828,0.0
51472.0,STARLINK-3415,PAYLOAD,2023-11-19 16:39:16,15.08841538,0.0001268,53.2185,94.5001,81.3189,278.7947,0.00013485,1.859e-05,0.0,0 STARLINK-3415,1 51472U 22010S   23323.69393635  .00001859  00000-0  13485-3 0  9998,2 51472  53.2185  94.5001 0001268  81.3189 278.7947 15.08841538100368,6917.876,95.437,540.618,538.864,0.0
51472.0,STARLINK-3415,PAYLOAD,2023-11-20 14:54:39,15.08849521,0.0001126,53.2174,90.3358,90.8941,269.2181,5.2207e-05,5.43e-06,0.0,0 STARLINK-3415,1 51472U 22010S   23324.62129161  .00000543  00000-0  52207-4 0  9998,2 51472  53.2174  90.3358 0001126  90.8941 269.2181 15.08849521100005,6917.851,95.437,540.495,538.937,0.0
51472.0,STARLINK-3415,PAYLOAD,2023-11-21 02:02:21,15.08833674,0.0001108,53.2177,88.2545,92.8517,267.2602,0.00026233,3.889e-05,0.0,0 STARLINK-3415,1 51472U 22010S   23325.08497566  .00003889  00000-0  26233-3 0  9991,2 51472  53.2177  88.2545 0001108  92.8517 267.2602 15.08833674100573,6917.9,95.438,540.531,538.998,0.0
51472.0,STARLINK-3415,PAYLOAD,2023-11-21 13:10:03,15.08843058,0.0001188,53.2184,86.1739,88.9492,271.1636,6.5574e-05,7.56e-06,0.0,0 STARLINK-3415,1 51472U 22010S   23325.54865451  .00000756  00000-0  65574-4 0  9996,2 51472  53.2184  86.1739 0001188  88.9492 271.1636 15.08843058100140,6917.871,95.437,540.558,538.914,0.0
51472.0,STARLINK-3415,PAYLOAD,2023-11-21 14:45:26,15.08844851,0.0001188,53.2185,85.8767,86.7435,273.3693,7.7848e-05,9.51e-06,0.0,0 STARLINK-3415,1 51472U 22010S   23325.61489292  .00000951  00000-0  77848-4 0  9993,2 51472  53.2185  85.8767 0001188  86.7435 273.3693 15.08844851100151,6917.866,95.437,540.552,538.909,0.0
51472.0,STARLINK-3415,PAYLOAD,2023-11-22 11:25:26,15.08852039,0.0001273,53.2184,82.0107,91.6206,268.4932,9.351e-05,1.201e-05,0.0,0 STARLINK-3415,1 51472U 22010S   23326.47600509  .00001201  00000-0  93510-4 0  9997,2 51472  53.2184  82.0107 0001273  91.6206 268.4932 15.08852039100780,6917.844,95.437,540.589,538.828,0.0
51472.0,STARLINK-3415,PAYLOAD,2023-11-22 14:36:12,15.08857677,0.0001373,53.2182,81.4159,95.1481,264.9668,0.00016431,2.329e-05,0.0,0 STARLINK-3415,1 51472U 22010S   23326.60847943  .00002329  00000-0  16431-3 0  9995,2 51472  53.2182  81.4159 0001373  95.1481 264.9668 15.08857677100301,6917.826,95.436,540.641,538.742,0.0
51472.0,STARLINK-3415,PAYLOAD,2023-11-23 11:16:15,15.08832147,0.000134,53.218,77.5517,97.3207,262.7937,-6.9795e-05,-1.398e-05,0.0,0 STARLINK-3415,1 51472U 22010S   23327.46961823 -.00001398  00000-0 -69795-4 0  9993,2 51472  53.2180  77.5517 0001340  97.3207 262.7937 15.08832147100936,6917.904,95.438,540.696,538.842,0.0
51472.0,STARLINK-3415,PAYLOAD,2023-11-23 12:51:38,15.08833106,0.0001436,53.2179,77.2542,100.1902,259.9252,-5.5319e-05,-1.168e-05,0.0,0 STARLINK-3415,1 51472U 22010S   23327.53585797 -.00001168  00000-0 -55319-4 0  9995,2 51472  53.2179  77.2542 0001436 100.1902 259.9252 15.08833106100440,6917.901,95.438,540.76,538.773,0.0
51472.0,STARLINK-3415,PAYLOAD,2023-11-24 14:17:48,15.08840676,0.0001472,53.2183,72.4929,99.3066,260.8093,5.6609e-05,6.13e-06,0.0,0 STARLINK-3415,1 51472U 22010S   23328.59570037  .00000613  00000-0  56609-4 0  9998,2 51472  53.2183  72.4929 0001472  99.3066 260.8093 15.08840676100603,6917.878,95.438,540.762,538.725,0.0
51472.0,STARLINK-3415,PAYLOAD,2023-11-25 14:08:35,15.08855519,0.0001557,53.2187,68.0318,98.5935,261.5233,0.00057006,8.8e-05,0.0,0 STARLINK-3415,1 51472U 22010S   23329.58930049  .00008800  00000-0  57006-3 0  9998,2 51472  53.2187  68.0318 0001557  98.5935 261.5233 15.08855519100752,6917.833,95.437,540.775,538.621,0.0
51472.0,STARLINK-3415,PAYLOAD,2023-11-26 10:48:35,15.08857082,0.0001706,53.2192,64.1723,79.4572,280.6612,0.00030572,4.583e-05,0.0,0 STARLINK-3415,1 51472U 22010S   23330.45041439  .00004583  00000-0  30572-3 0  9995,2 51472  53.2192  64.1723 0001706  79.4572 280.6612 15.08857082101386,6917.828,95.436,540.873,538.513,0.0
51472.0,STARLINK-3415,PAYLOAD,2023-11-26 13:59:22,15.08858375,0.0001988,53.2193,63.5787,62.4353,297.6841,0.00029685,4.442e-05,0.0,0 STARLINK-3415,1 51472U 22010S   23330.58289400  .00004442  00000-0  29685-3 0  9998,2 51472  53.2193  63.5787 0001988  62.4353 297.6841 15.08858375100906,6917.824,95.436,541.064,538.314,0.0
51472.0,STARLINK-3415,PAYLOAD,2023-11-26 15:34:44,15.08865799,0.0001433,53.2188,63.2766,84.8298,275.2858,0.00041829,6.38e-05,0.0,0 STARLINK-3415,1 51472U 22010S   23330.64912772  .00006380  00000-0  41829-3 0  9997,2 51472  53.2188  63.2766 0001433  84.8298 275.2858 15.08865799100914,6917.802,95.436,540.658,538.675,0.0
51472.0,STARLINK-3415,PAYLOAD,2023-11-27 12:14:46,15.08823559,0.0001652,53.2188,59.4078,94.371,265.7471,-0.00041077,-6.817e-05,0.0,0 STARLINK-3415,1 51472U 22010S   23331.51026512 -.00006817  00000-0 -41077-3 0  9994,2 51472  53.2188  59.4078 0001652  94.3710 265.7471 15.08823559101548,6917.931,95.439,540.938,538.653,0.0
51472.0,STARLINK-3415,PAYLOAD,2023-11-27 13:50:10,15.08825091,0.0001862,53.2194,59.1114,71.5118,288.6077,-0.00029952,-5.05e-05,0.0,0 STARLINK-3415,1 51472U 22010S   23331.57651037 -.00005050  00000-0 -29952-3 0  9992,2 51472  53.2194  59.1114 0001862  71.5118 288.6077 15.08825091101050,6917.926,95.438,541.079,538.503,0.0
51472.0,STARLINK-3415,PAYLOAD,2023-11-27 15:25:33,15.08826337,0.0001631,53.2191,58.8123,84.1141,276.0037,-0.00023817,-4.075e-05,0.0,0 STARLINK-3415,1 51472U 22010S   23331.64274845 -.00004075  00000-0 -23817-3 0  9998,2 51472  53.2191  58.8123 0001631  84.1141 276.0037 15.08826337101065,6917.922,95.438,540.915,538.659,0.0
51472.0,STARLINK-3415,PAYLOAD,2023-11-28 12:05:34,15.08841399,0.0001936,53.2183,54.9562,66.9567,293.1629,0.00023192,3.405e-05,0.0,0 STARLINK-3415,1 51472U 22010S   23332.50386722  .00003405  00000-0  23192-3 0  9992,2 51472  53.2183  54.9562 0001936  66.9567 293.1629 15.08841399101699,6917.876,95.437,541.08,538.402,0.0
51472.0,STARLINK-3415,PAYLOAD,2023-11-29 11:56:21,15.08845972,0.0001527,53.2189,50.4903,92.6572,267.4595,0.00028918,4.318e-05,0.0,0 STARLINK-3415,1 51472U 22010S   23333.49746715  .00004318  00000-0  28918-3 0  9998,2 51472  53.2189  50.4903 0001527  92.6572 267.4595 15.08845972101342,6917.862,95.437,540.783,538.671,0.0
51472.0,STARLINK-3415,PAYLOAD,2023-11-30 10:11:45,15.08845087,0.000168,53.2197,46.33,103.0734,257.0446,-4.4842e-05,-1.002e-05,0.0,0 STARLINK-3415,1 51472U 22010S   23334.42482726 -.00001002  00000-0 -44842-4 0  9995,2 51472  53.2197  46.3300 0001680 103.0734 257.0446 15.08845087101980,6917.865,95.437,540.892,538.568,0.0
51472.0,STARLINK-3415,PAYLOAD,2023-12-01 05:16:24,15.08817549,0.0001591,53.2195,42.7623,98.0492,262.0681,-0.00015867,-2.811e-05,0.0,0 STARLINK-3415,1 51472U 22010S   23335.21972888 -.00002811  00000-0 -15867-3 0  9999,2 51472  53.2195  42.7623 0001591  98.0492 262.0681 15.08817549102105,6917.949,95.439,540.915,538.713,0.0
51472.0,STARLINK-3415,PAYLOAD,2023-12-01 11:37:57,15.08817784,0.0001441,53.2183,41.5657,104.2517,255.8635,-0.00014679,-2.622e-05,0.0,0 STARLINK-3415,1 51472U 22010S   23335.48469886 -.00002622  00000-0 -14679-3 0  9997,2 51472  53.2183  41.5657 0001441 104.2517 255.8635 15.08817784101646,6917.948,95.439,540.81,538.816,0.0
51472.0,STARLINK-3415,PAYLOAD,2023-12-02 11:28:40,15.08892552,0.0001615,53.2183,37.1096,83.8415,276.2761,0.00087379,0.00013666,0.0,0 STARLINK-3415,1 51472U 22010S   23336.47825131  .00013666  00000-0  87379-3 0  9991,2 51472  53.2183  37.1096 0001615  83.8415 276.2761 15.08892552102291,6917.72,95.434,540.702,538.468,0.0
51472.0,STARLINK-3415,PAYLOAD,2023-12-03 03:22:36,15.0880701,8.78e-05,53.2192,34.1351,92.7933,267.316,5.6933e-05,6.18e-06,0.0,0 STARLINK-3415,1 51472U 22010S   23337.14069574  .00000618  00000-0  56933-4 0  9993,2 51472  53.2192  34.1351 0000878  92.7933 267.3160 15.08807010102396,6917.981,95.44,540.454,539.239,0.0
51472.0,STARLINK-3415,PAYLOAD,2023-12-03 12:54:55,15.08805443,0.0001483,53.2184,32.3506,108.0952,252.0202,1.1285e-05,-1.08e-06,0.0,0 STARLINK-3415,1 51472U 22010S   23337.53814427 -.00000108  00000-0  11285-4 0  9997,2 51472  53.2184  32.3506 0001483 108.0952 252.0202 15.08805443101951,6917.986,95.44,540.877,538.825,0.0
51472.0,STARLINK-3415,PAYLOAD,2023-12-03 17:41:04,15.08809842,0.0001496,53.2183,31.4587,116.2226,243.892,8.1042e-06,-1.59e-06,0.0,0 STARLINK-3415,1 51472U 22010S   23337.73686203 -.00000159  00000-0  81042-5 0  9993,2 51472  53.2183  31.4587 0001496 116.2226 243.8920 15.08809842102489,6917.973,95.439,540.873,538.803,0.0
51472.0,STARLINK-3415,PAYLOAD,2023-12-04 03:13:23,15.0884682,0.0001529,53.2185,29.6711,88.3305,271.7862,-0.00048853,-8.056e-05,0.0,0 STARLINK-3415,1 51472U 22010S   23338.13429637 -.00008056  00000-0 -48853-3 0  9990,2 51472  53.2185  29.6711 0001529  88.3305 271.7862 15.08846820102542,6917.86,95.437,540.782,538.667,0.0
51472.0,STARLINK-3415,PAYLOAD,2023-12-04 11:10:17,15.08853971,0.0001859,53.2194,28.192,81.0184,279.1019,-0.00036903,-6.159e-05,0.0,0 STARLINK-3415,1 51472U 22010S   23338.46548580 -.00006159  00000-0 -36903-3 0  9990,2 51472  53.2194  28.1920 0001859  81.0184 279.1019 15.08853971102595,6917.838,95.437,540.989,538.417,0.0
